{"type": "FeatureCollection", "features": [ {"type": "Feature", "properties": {"norad_id": 35744, "name": "IRIDIUM 33 DEB", "group": "iridium-33-debris", "lat": 27.61017548357129, "lon": -35.22102118439008, "alt_km": 668.4470710524238, "timestamp": "2025-12-18T10:51:26.196333+00:00", "meta": {"OBJECT_NAME": "IRIDIUM 33 DEB", "OBJECT_ID": "1997-051RX", "EPOCH": "2025-12-17T08:36:38.508192", "MEAN_MOTION": 14.71057485, "ECCENTRICITY": 0.00208183, "INCLINATION": 86.3286, "RA_OF_ASC_NODE": 323.3486, "ARG_OF_PERICENTER": 175.4517, "MEAN_ANOMALY": 184.6893, "EPHEMERIS_TYPE": 0, "CLASSIFICATION_TYPE": "U", "NORAD_CAT_ID": 35744, "ELEMENT_SET_NO": 999, "REV_AT_EPOCH": 87399, "BSTAR": 0.00086970493, "MEAN_MOTION_DOT": 5.382e-05, "MEAN_MOTION_DDOT": 0}, "tle": {"line1": "1 35744U 97051RX  25351.35877903  .00005382  00000+0  86970-3 0  9993", "line2": "2 35744  86.3286 323.3486 0020818 175.4517 184.6893 14.71057485873993"}}, "geometry": {"type": "Point", "coordinates": [-35.22102118439008, 27.61017548357129]}}, {"type": "Feature", "properties": {"norad_id": 35797, "name": "IRIDIUM 33 DEB", "group": "iridium-33-debris", "lat": -1.0921990769080578, "lon": -32.72095556712689, "alt_km": 628.948721222835, "timestamp": "2025-12-18T10:51:26.196344+00:00", "meta": {"OBJECT_NAME": "IRIDIUM 33 DEB", "OBJECT_ID": "1997-051SF", "EPOCH": "2025-12-12T05:51:50.415264", "MEAN_MOTION": 14.82743783, "ECCENTRICITY": 0.00133704, "INCLINATION": 86.3362, "RA_OF_ASC_NODE": 330.2007, "ARG_OF_PERICENTER": 149.5686, "MEAN_ANOMALY": 210.6315, "EPHEMERIS_TYPE": 0, "CLASSIFICATION_TYPE": "U", "NORAD_CAT_ID": 35797, "ELEMENT_SET_NO": 999, "REV_AT_EPOCH": 87333, "BSTAR": 0.0026694194, "MEAN_MOTION_DOT": 0.00021655, "MEAN_MOTION_DDOT": 0}, "tle": {"line1": "1 35797U 97051SF  25346.24433351  .00021655  00000+0  26694-2 0  9995", "line2": "2 35797  86.3362 330.2007 0013370 149.5686 210.6315 14.82743783873338"}}, "geometry": {"type": "Point", "coordinates": [-32.72095556712689, -1.0921990769080578]}}, {"type": "Feature", "properties": {"norad_id": 35806, "name": "IRIDIUM 33 DEB", "group": "iridium-33-debris", "lat": 38.471212016120475, "lon": -164.7984030961329, "alt_km": 697.6784785363425, "timestamp": "2025-12-18T10:51:26.196354+00:00", "meta": {"OBJECT_NAME": "IRIDIUM 33 DEB", "OBJECT_ID": "1997-051SQ", "EPOCH": "2025-12-16T08:46:37.248096", "MEAN_MOTION": 14.57379748, "ECCENTRICITY": 0.00158634, "INCLINATION": 86.3444, "RA_OF_ASC_NODE": 19.032, "ARG_OF_PERICENTER": 64.1996, "MEAN_ANOMALY": 296.0847, "EPHEMERIS_TYPE": 0, "CLASSIFICATION_TYPE": "U", "NORAD_CAT_ID": 35806, "ELEMENT_SET_NO": 999, "REV_AT_EPOCH": 86377, "BSTAR": 0.00073764812, "MEAN_MOTION_DOT": 3.369e-05, "MEAN_MOTION_DDOT": 0}, "tle": {"line1": "1 35806U 97051SQ  25350.36570889  .00003369  00000+0  73765-3 0  9996", "line2": "2 35806  86.3444  19.0320 0015863  64.1996 296.0847 14.57379748863778"}}, "geometry": {"type": "Point", "coordinates": [-164.7984030961329, 38.471212016120475]}}, {"type": "Feature", "properties": {"norad_id": 35809, "name": "IRIDIUM 33 DEB", "group": "iridium-33-debris", "lat": 15.837026146982112, "lon": 151.70566292528028, "alt_km": 639.6889562496845, "timestamp": "2025-12-18T10:51:26.196364+00:00", "meta": {"OBJECT_NAME": "IRIDIUM 33 DEB", "OBJECT_ID": "1997-051ST", "EPOCH": "2025-12-10T16:35:56.421600", "MEAN_MOTION": 14.75629145, "ECCENTRICITY": 0.00097103, "INCLINATION": 86.329, "RA_OF_ASC_NODE": 336.2813, "ARG_OF_PERICENTER": 251.0565, "MEAN_ANOMALY": 108.9602, "EPHEMERIS_TYPE": 0, "CLASSIFICATION_TYPE": "U", "NORAD_CAT_ID": 35809, "ELEMENT_SET_NO": 999, "REV_AT_EPOCH": 86777, "BSTAR": 0.0026432017, "MEAN_MOTION_DOT": 0.00018102, "MEAN_MOTION_DDOT": 0}, "tle": {"line1": "1 35809U 97051ST  25344.69162525  .00018102  00000+0  26432-2 0  9991", "line2": "2 35809  86.3290 336.2813 0009710 251.0565 108.9602 14.75629145867777"}}, "geometry": {"type": "Point", "coordinates": [151.70566292528028, 15.837026146982112]}}, {"type": "Feature", "properties": {"norad_id": 35846, "name": "IRIDIUM 33 DEB", "group": "iridium-33-debris", "lat": -4.978937303537637, "lon": 56.08688885181098, "alt_km": 764.3645413810254, "timestamp": "2025-12-18T10:51:26.196374+00:00", "meta": {"OBJECT_NAME": "IRIDIUM 33 DEB", "OBJECT_ID": "1997-051SW", "EPOCH": "2025-12-17T14:54:42.096384", "MEAN_MOTION": 14.4317707, "ECCENTRICITY": 0.00193544, "INCLINATION": 86.3749, "RA_OF_ASC_NODE": 56.7579, "ARG_OF_PERICENTER": 154.5428, "MEAN_ANOMALY": 205.673, "EPHEMERIS_TYPE": 0, "CLASSIFICATION_TYPE": "U", "NORAD_CAT_ID": 35846, "ELEMENT_SET_NO": 999, "REV_AT_EPOCH": 71399, "BSTAR": 0.00041713484, "MEAN_MOTION_DOT": 1.424e-05, "MEAN_MOTION_DDOT": 0}, "tle": {"line1": "1 35846U 97051SW  25351.62132056  .00001424  00000+0  41713-3 0  9998", "line2": "2 35846  86.3749  56.7579 0019354 154.5428 205.6730 14.43177070713991"}}, "geometry": {"type": "Point", "coordinates": [56.08688885181098, -4.978937303537637]}}, {"type": "Feature", "properties": {"norad_id": 35848, "name": "IRIDIUM 33 DEB", "group": "iridium-33-debris", "lat": 3.7362497296356434, "lon": -166.68077004183144, "alt_km": 630.1077393472478, "timestamp": "2025-12-18T10:51:26.196384+00:00", "meta": {"OBJECT_NAME": "IRIDIUM 33 DEB", "OBJECT_ID": "1997-051SY", "EPOCH": "2025-12-16T19:05:07.807200", "MEAN_MOTION": 14.78723023, "ECCENTRICITY": 0.00083075, "INCLINATION": 86.3897, "RA_OF_ASC_NODE": 14.3007, "ARG_OF_PERICENTER": 174.3439, "MEAN_ANOMALY": 185.7876, "EPHEMERIS_TYPE": 0, "CLASSIFICATION_TYPE": "U", "NORAD_CAT_ID": 35848, "ELEMENT_SET_NO": 999, "REV_AT_EPOCH": 66750, "BSTAR": 0.0011327955, "MEAN_MOTION_DOT": 8.343e-05, "MEAN_MOTION_DDOT": 0}, "tle": {"line1": "1 35848U 97051SY  25350.79522925  .00008343  00000+0  11328-2 0  9990", "line2": "2 35848  86.3897  14.3007 0008307 174.3439 185.7876 14.78723023667508"}}, "geometry": {"type": "Point", "coordinates": [-166.68077004183144, 3.7362497296356434]}}, {"type": "Feature", "properties": {"norad_id": 35850, "name": "IRIDIUM 33 DEB", "group": "iridium-33-debris", "lat": 34.65855538342356, "lon": 159.11759972338865, "alt_km": 623.9965041879532, "timestamp": "2025-12-18T10:51:26.196394+00:00", "meta": {"OBJECT_NAME": "IRIDIUM 33 DEB", "OBJECT_ID": "1997-051TA", "EPOCH": "2025-12-17T06:35:50.424288", "MEAN_MOTION": 14.78922738, "ECCENTRICITY": 0.00098245, "INCLINATION": 86.3492, "RA_OF_ASC_NODE": 342.1832, "ARG_OF_PERICENTER": 168.4252, "MEAN_ANOMALY": 191.7196, "EPHEMERIS_TYPE": 0, "CLASSIFICATION_TYPE": "U", "NORAD_CAT_ID": 35850, "ELEMENT_SET_NO": 999, "REV_AT_EPOCH": 71424, "BSTAR": 0.0012101447, "MEAN_MOTION_DOT": 8.956e-05, "MEAN_MOTION_DDOT": 0}, "tle": {"line1": "1 35850U 97051TA  25351.27488917  .00008956  00000+0  12101-2 0  9999", "line2": "2 35850  86.3492 342.1832 0009824 168.4252 191.7196 14.78922738714242"}}, "geometry": {"type": "Point", "coordinates": [159.11759972338865, 34.65855538342356]}}, {"type": "Feature", "properties": {"norad_id": 35915, "name": "IRIDIUM 33 DEB", "group": "iridium-33-debris", "lat": 55.41693875173339, "lon": 155.02516509007904, "alt_km": 615.4522662029694, "timestamp": "2025-12-18T10:51:26.196405+00:00", "meta": {"OBJECT_NAME": "IRIDIUM 33 DEB", "OBJECT_ID": "1997-051TY", "EPOCH": "2025-12-15T17:25:35.441760", "MEAN_MOTION": 14.80816607, "ECCENTRICITY": 0.00112544, "INCLINATION": 86.3436, "RA_OF_ASC_NODE": 341.593, "ARG_OF_PERICENTER": 174.6839, "MEAN_ANOMALY": 185.4504, "EPHEMERIS_TYPE": 0, "CLASSIFICATION_TYPE": "U", "NORAD_CAT_ID": 35915, "ELEMENT_SET_NO": 999, "REV_AT_EPOCH": 8130, "BSTAR": 0.0011378054, "MEAN_MOTION_DOT": 8.81e-05, "MEAN_MOTION_DDOT": 0}, "tle": {"line1": "1 35915U 97051TY  25349.72610465  .00008810  00000+0  11378-2 0  9997", "line2": "2 35915  86.3436 341.5930 0011254 174.6839 185.4504 14.80816607 81301"}}, "geometry": {"type": "Point", "coordinates": [155.02516509007904, 55.41693875173339]}}, {"type": "Feature", "properties": {"norad_id": 35918, "name": "IRIDIUM 33 DEB", "group": "iridium-33-debris", "lat": 32.248623255548225, "lon": 75.63983599251613, "alt_km": 729.0859644348075, "timestamp": "2025-12-18T10:51:26.196415+00:00", "meta": {"OBJECT_NAME": "IRIDIUM 33 DEB", "OBJECT_ID": "1997-051UB", "EPOCH": "2025-12-16T12:39:39.180384", "MEAN_MOTION": 14.5127814, "ECCENTRICITY": 0.0027979, "INCLINATION": 86.4012, "RA_OF_ASC_NODE": 74.1902, "ARG_OF_PERICENTER": 157.398, "MEAN_ANOMALY": 265.1439, "EPHEMERIS_TYPE": 0, "CLASSIFICATION_TYPE": "U", "NORAD_CAT_ID": 35918, "ELEMENT_SET_NO": 999, "REV_AT_EPOCH": 85262, "BSTAR": 0.00077323104, "MEAN_MOTION_DOT": 3.111e-05, "MEAN_MOTION_DDOT": 0}, "tle": {"line1": "1 35918U 97051UB  25350.52753681  .00003111  00000+0  77323-3 0  9990", "line2": "2 35918  86.4012  74.1902 0027979 157.3980 265.1439 14.51278140852625"}}, "geometry": {"type": "Point", "coordinates": [75.63983599251613, 32.248623255548225]}}, {"type": "Feature", "properties": {"norad_id": 35929, "name": "IRIDIUM 33 DEB", "group": "iridium-33-debris", "lat": 61.55228888259926, "lon": 123.12206349737743, "alt_km": 554.3896429725391, "timestamp": "2025-12-18T10:51:26.196426+00:00", "meta": {"OBJECT_NAME": "IRIDIUM 33 DEB", "OBJECT_ID": "1997-051UN", "EPOCH": "2025-12-17T15:09:24.292224", "MEAN_MOTION": 15.02734455, "ECCENTRICITY": 0.00173872, "INCLINATION": 86.3329, "RA_OF_ASC_NODE": 310.3099, "ARG_OF_PERICENTER": 21.8082, "MEAN_ANOMALY": 338.3888, "EPHEMERIS_TYPE": 0, "CLASSIFICATION_TYPE": "U", "NORAD_CAT_ID": 35929, "ELEMENT_SET_NO": 999, "REV_AT_EPOCH": 87853, "BSTAR": 0.0021011634, "MEAN_MOTION_DOT": 0.00028257, "MEAN_MOTION_DDOT": 0}, "tle": {"line1": "1 35929U 97051UN  25351.63153116  .00028257  00000+0  21012-2 0  9993", "line2": "2 35929  86.3329 310.3099 0017387  21.8082 338.3888 15.02734455878531"}}, "geometry": {"type": "Point", "coordinates": [123.12206349737743, 61.55228888259926]}}]}